CCSDS_OMM_VERS = 2.0
CREATION_DATE  = 
ORIGINATOR     = 

OBJECT_NAME    = STARLINK-35483
OBJECT_ID      = 2025-245U
CENTER_NAME    = EARTH
REF_FRAME      = TEME
TIME_SYSTEM    = UTC
MEAN_ELEMENT_THEORY = SGP/SGP4

EPOCH          = 2025-11-08T12:00:00.998784
MEAN_MOTION    = 15.87833754
ECCENTRICITY   = .0000608
INCLINATION    = 53.1528
RA_OF_ASC_NODE = 133.8724
ARG_OF_PERICENTER = 76.2363
MEAN_ANOMALY   = 262.8355

EPHEMERIS_TYPE = 0
CLASSIFICATION_TYPE = U
NORAD_CAT_ID   = 66252
ELEMENT_SET_NO = 999
REV_AT_EPOCH   = 255
BSTAR          = -.54221E-2
MEAN_MOTION_DOT = -.1316367E-1
MEAN_MOTION_DDOT = 0

CCSDS_OMM_VERS = 2.0
CREATION_DATE  = 
ORIGINATOR     = 

OBJECT_NAME    = STARLINK-35486
OBJECT_ID      = 2025-245V
CENTER_NAME    = EARTH
REF_FRAME      = TEME
TIME_SYSTEM    = UTC
MEAN_ELEMENT_THEORY = SGP/SGP4

EPOCH          = 2025-11-08T12:00:00.998784
MEAN_MOTION    = 15.87865877
ECCENTRICITY   = .0000618
INCLINATION    = 53.1531
RA_OF_ASC_NODE = 133.8685
ARG_OF_PERICENTER = 80.7061
MEAN_ANOMALY   = 260.5115

EPHEMERIS_TYPE = 0
CLASSIFICATION_TYPE = U
NORAD_CAT_ID   = 66253
ELEMENT_SET_NO = 999
REV_AT_EPOCH   = 239
BSTAR          = -.54852E-2
MEAN_MOTION_DOT = -.1331698E-1
MEAN_MOTION_DDOT = 0

CCSDS_OMM_VERS = 2.0
CREATION_DATE  = 
ORIGINATOR     = 

OBJECT_NAME    = STARLINK-35488
OBJECT_ID      = 2025-245W
CENTER_NAME    = EARTH
REF_FRAME      = TEME
TIME_SYSTEM    = UTC
MEAN_ELEMENT_THEORY = SGP/SGP4

EPOCH          = 2025-11-08T12:00:00.998784
MEAN_MOTION    = 15.87882478
ECCENTRICITY   = .0000551
INCLINATION    = 53.1528
RA_OF_ASC_NODE = 133.8628
ARG_OF_PERICENTER = 81.4881
MEAN_ANOMALY   = 262.1486

EPHEMERIS_TYPE = 0
CLASSIFICATION_TYPE = U
NORAD_CAT_ID   = 66254
ELEMENT_SET_NO = 999
REV_AT_EPOCH   = 260
BSTAR          = -.54823E-2
MEAN_MOTION_DOT = -.1332016E-1
MEAN_MOTION_DDOT = 0

CCSDS_OMM_VERS = 2.0
CREATION_DATE  = 
ORIGINATOR     = 

OBJECT_NAME    = STARLINK-35616
OBJECT_ID      = 2025-245X
CENTER_NAME    = EARTH
REF_FRAME      = TEME
TIME_SYSTEM    = UTC
MEAN_ELEMENT_THEORY = SGP/SGP4

EPOCH          = 2025-11-08T12:00:00.998784
MEAN_MOTION    = 15.87910997
ECCENTRICITY   = .0000445
INCLINATION    = 53.1529
RA_OF_ASC_NODE = 133.8585
ARG_OF_PERICENTER = 84.6204
MEAN_ANOMALY   = 261.2364

EPHEMERIS_TYPE = 0
CLASSIFICATION_TYPE = U
NORAD_CAT_ID   = 66255
ELEMENT_SET_NO = 999
REV_AT_EPOCH   = 260
BSTAR          = -.55333E-2
MEAN_MOTION_DOT = -.1344511E-1
MEAN_MOTION_DDOT = 0

CCSDS_OMM_VERS = 2.0
CREATION_DATE  = 
ORIGINATOR     = 

OBJECT_NAME    = STARLINK-35619
OBJECT_ID      = 2025-245Y
CENTER_NAME    = EARTH
REF_FRAME      = TEME
TIME_SYSTEM    = UTC
MEAN_ELEMENT_THEORY = SGP/SGP4

EPOCH          = 2025-11-08T12:00:00.998784
MEAN_MOTION    = 15.87941071
ECCENTRICITY   = .000107
INCLINATION    = 53.1528
RA_OF_ASC_NODE = 133.8450
ARG_OF_PERICENTER = 65.1646
MEAN_ANOMALY   = 287.2235

EPHEMERIS_TYPE = 0
CLASSIFICATION_TYPE = U
NORAD_CAT_ID   = 66256
ELEMENT_SET_NO = 999
REV_AT_EPOCH   = 260
BSTAR          = -.53787E-2
MEAN_MOTION_DOT = -.1313598E-1
MEAN_MOTION_DDOT = 0

CCSDS_OMM_VERS = 2.0
CREATION_DATE  = 
ORIGINATOR     = 

OBJECT_NAME    = STARLINK-35615
OBJECT_ID      = 2025-245Z
CENTER_NAME    = EARTH
REF_FRAME      = TEME
TIME_SYSTEM    = UTC
MEAN_ELEMENT_THEORY = SGP/SGP4

EPOCH          = 2025-11-08T12:00:00.998784
MEAN_MOTION    = 15.87953739
ECCENTRICITY   = .0000652
INCLINATION    = 53.1530
RA_OF_ASC_NODE = 133.8494
ARG_OF_PERICENTER = 80.0775
MEAN_ANOMALY   = 270.1765

EPHEMERIS_TYPE = 0
CLASSIFICATION_TYPE = U
NORAD_CAT_ID   = 66257
ELEMENT_SET_NO = 999
REV_AT_EPOCH   = 260
BSTAR          = -.55376E-2
MEAN_MOTION_DOT = -.1348092E-1
MEAN_MOTION_DDOT = 0

CCSDS_OMM_VERS = 2.0
CREATION_DATE  = 
ORIGINATOR     = 

OBJECT_NAME    = STARLINK-34650
OBJECT_ID      = 2025-245AA
CENTER_NAME    = EARTH
REF_FRAME      = TEME
TIME_SYSTEM    = UTC
MEAN_ELEMENT_THEORY = SGP/SGP4

EPOCH          = 2025-11-08T12:00:00.998784
MEAN_MOTION    = 15.87949460
ECCENTRICITY   = .0000611
INCLINATION    = 53.1529
RA_OF_ASC_NODE = 133.8547
ARG_OF_PERICENTER = 77.2370
MEAN_ANOMALY   = 270.4584

EPHEMERIS_TYPE = 0
CLASSIFICATION_TYPE = U
NORAD_CAT_ID   = 66258
ELEMENT_SET_NO = 999
REV_AT_EPOCH   = 260
BSTAR          = -.55314E-2
MEAN_MOTION_DOT = -.1346495E-1
MEAN_MOTION_DDOT = 0

CCSDS_OMM_VERS = 2.0
CREATION_DATE  = 
ORIGINATOR     = 

OBJECT_NAME    = STARLINK-35529
OBJECT_ID      = 2025-245AB
CENTER_NAME    = EARTH
REF_FRAME      = TEME
TIME_SYSTEM    = UTC
MEAN_ELEMENT_THEORY = SGP/SGP4

EPOCH          = 2025-11-08T12:00:00.998784
MEAN_MOTION    = 15.88029358
ECCENTRICITY   = .0000654
INCLINATION    = 53.1529
RA_OF_ASC_NODE = 133.8360
ARG_OF_PERICENTER = 80.3262
MEAN_ANOMALY   = 276.3079

EPHEMERIS_TYPE = 0
CLASSIFICATION_TYPE = U
NORAD_CAT_ID   = 66259
ELEMENT_SET_NO = 999
REV_AT_EPOCH   = 260
BSTAR          = -.5573E-2
MEAN_MOTION_DOT = -.1360183E-1
MEAN_MOTION_DDOT = 0

CCSDS_OMM_VERS = 2.0
CREATION_DATE  = 
ORIGINATOR     = 

OBJECT_NAME    = STARLINK-35420
OBJECT_ID      = 2025-245AC
CENTER_NAME    = EARTH
REF_FRAME      = TEME
TIME_SYSTEM    = UTC
MEAN_ELEMENT_THEORY = SGP/SGP4

EPOCH          = 2025-11-08T12:00:00.998784
MEAN_MOTION    = 15.88010405
ECCENTRICITY   = .0000508
INCLINATION    = 53.1527
RA_OF_ASC_NODE = 133.8404
ARG_OF_PERICENTER = 86.9578
MEAN_ANOMALY   = 267.4987

EPHEMERIS_TYPE = 0
CLASSIFICATION_TYPE = U
NORAD_CAT_ID   = 66260
ELEMENT_SET_NO = 999
REV_AT_EPOCH   = 260
BSTAR          = -.56E-2
MEAN_MOTION_DOT = -.136471E-1
MEAN_MOTION_DDOT = 0

CCSDS_OMM_VERS = 2.0
CREATION_DATE  = 
ORIGINATOR     = 

OBJECT_NAME    = STARLINK-35536
OBJECT_ID      = 2025-245AD
CENTER_NAME    = EARTH
REF_FRAME      = TEME
TIME_SYSTEM    = UTC
MEAN_ELEMENT_THEORY = SGP/SGP4

EPOCH          = 2025-11-08T12:00:00.998784
MEAN_MOTION    = 15.88043835
ECCENTRICITY   = .0000599
INCLINATION    = 53.1528
RA_OF_ASC_NODE = 133.8304
ARG_OF_PERICENTER = 80.3323
MEAN_ANOMALY   = 279.0501

EPHEMERIS_TYPE = 0
CLASSIFICATION_TYPE = U
NORAD_CAT_ID   = 66261
ELEMENT_SET_NO = 999
REV_AT_EPOCH   = 260
BSTAR          = -.55924E-2
MEAN_MOTION_DOT = -.1365141E-1
MEAN_MOTION_DDOT = 0

CCSDS_OMM_VERS = 2.0
CREATION_DATE  = 
ORIGINATOR     = 

OBJECT_NAME    = STARLINK-35487
OBJECT_ID      = 2025-245AE
CENTER_NAME    = EARTH
REF_FRAME      = TEME
TIME_SYSTEM    = UTC
MEAN_ELEMENT_THEORY = SGP/SGP4

EPOCH          = 2025-11-08T12:00:00.998784
MEAN_MOTION    = 15.88071717
ECCENTRICITY   = .0000641
INCLINATION    = 53.1528
RA_OF_ASC_NODE = 133.8254
ARG_OF_PERICENTER = 74.5801
MEAN_ANOMALY   = 287.0576

EPHEMERIS_TYPE = 0
CLASSIFICATION_TYPE = U
NORAD_CAT_ID   = 66262
ELEMENT_SET_NO = 999
REV_AT_EPOCH   = 255
BSTAR          = -.56429E-2
MEAN_MOTION_DOT = -.1377647E-1
MEAN_MOTION_DDOT = 0

CCSDS_OMM_VERS = 2.0
CREATION_DATE  = 
ORIGINATOR     = 

OBJECT_NAME    = SHENZHOU-21 (SZ-21)
OBJECT_ID      = 2025-246A
CENTER_NAME    = EARTH
REF_FRAME      = TEME
TIME_SYSTEM    = UTC
MEAN_ELEMENT_THEORY = SGP/SGP4

EPOCH          = 2025-11-08T01:32:13.651296
MEAN_MOTION    = 15.60647542
ECCENTRICITY   = .0005444
INCLINATION    = 41.4661
RA_OF_ASC_NODE = 227.2566
ARG_OF_PERICENTER = 342.7102
MEAN_ANOMALY   = 17.3551

EPHEMERIS_TYPE = 0
CLASSIFICATION_TYPE = U
NORAD_CAT_ID   = 66263
ELEMENT_SET_NO = 999
REV_AT_EPOCH   = 25813
BSTAR          = .48275349E-3
MEAN_MOTION_DOT = .41061E-3
MEAN_MOTION_DDOT = 0

