STARLINK-35483          
1 66252U 25245U   25312.50001156 -.01316367  00000+0 -54221-2 0  9994
2 66252  53.1528 133.8724 0000608  76.2363 262.8355 15.87833754  2550
STARLINK-35486          
1 66253U 25245V   25312.50001156 -.01331698  00000+0 -54852-2 0  9999
2 66253  53.1531 133.8685 0000618  80.7061 260.5115 15.87865877  2399
STARLINK-35488          
1 66254U 25245W   25312.50001156 -.01332016  00000+0 -54823-2 0  9993
2 66254  53.1528 133.8628 0000551  81.4881 262.1486 15.87882478  2606
STARLINK-35616          
1 66255U 25245X   25312.50001156 -.01344511  00000+0 -55333-2 0  9994
2 66255  53.1529 133.8585 0000445  84.6204 261.2364 15.87910997  2609
STARLINK-35619          
1 66256U 25245Y   25312.50001156 -.01313598  00000+0 -53787-2 0  9997
2 66256  53.1528 133.8450 0001070  65.1646 287.2235 15.87941071  2601
STARLINK-35615          
1 66257U 25245Z   25312.50001156 -.01348092  00000+0 -55376-2 0  9991
2 66257  53.1530 133.8494 0000652  80.0775 270.1765 15.87953739  2600
STARLINK-34650          
1 66258U 25245AA  25312.50001156 -.01346495  00000+0 -55314-2 0  9999
2 66258  53.1529 133.8547 0000611  77.2370 270.4584 15.87949460  2600
STARLINK-35529          
1 66259U 25245AB  25312.50001156 -.01360183  00000+0 -55730-2 0  9992
2 66259  53.1529 133.8360 0000654  80.3262 276.3079 15.88029358  2606
STARLINK-35420          
1 66260U 25245AC  25312.50001156 -.01364710  00000+0 -56000-2 0  9995
2 66260  53.1527 133.8404 0000508  86.9578 267.4987 15.88010405  2607
STARLINK-35536          
1 66261U 25245AD  25312.50001156 -.01365141  00000+0 -55924-2 0  9999
2 66261  53.1528 133.8304 0000599  80.3323 279.0501 15.88043835  2608
STARLINK-35487          
1 66262U 25245AE  25312.50001156 -.01377647  00000+0 -56429-2 0  9995
2 66262  53.1528 133.8254 0000641  74.5801 287.0576 15.88071717  2552
SHENZHOU-21 (SZ-21)     
1 66263U 25246A   25312.06404689  .00041061  00000+0  48275-3 0  9992
2 66263  41.4661 227.2566 0005444 342.7102  17.3551 15.60647542258134
